NORAD_CAT_ID,OBJECT_NAME,OBJECT_TYPE,EPOCH,MEAN_MOTION,ECCENTRICITY,INCLINATION,RA_OF_ASC_NODE,ARG_OF_PERICENTER,MEAN_ANOMALY,BSTAR,MEAN_MOTION_DOT,MEAN_MOTION_DDOT,TLE_LINE0,TLE_LINE1,TLE_LINE2,SEMIMAJOR_AXIS,PERIOD,APOGEE,PERIGEE,DECAYED
50813.0,STARLINK-3349,PAYLOAD,2022-01-22 20:00:01,15.75214672,0.0001158,53.2172,120.1985,71.8014,118.95,-0.005903,-0.00821427,0.0,0 STARLINK-3349,1 50813U 22001L   22022.83334491 -.00821427  00000-0 -59030-2 0  9990,2 50813  53.2172 120.1985 0001158  71.8014 118.9500 15.75214672  3794,6722.156999999997,91.416,344.801,343.244,0.0
50813.0,STARLINK-3349,PAYLOAD,2022-01-22 22:00:00,15.75068031,0.0001063,53.2175,119.7842,80.4557,223.1092,-0.005937,-0.00820874,0.0,0 STARLINK-3349,1 50813U 22001L   22022.91667824 -.00820874  00000-0 -59370-2 0  9990,2 50813  53.2175 119.7842 0001063  80.4557 223.1092 15.75068031  3078,6722.575,91.425,345.154,343.725,0.0
50813.0,STARLINK-3349,PAYLOAD,2022-01-23 14:00:01,15.73867689,0.0001406,53.2175,116.48,45.3768,79.1144,-0.0057205,-0.00756473,0.0,0 STARLINK-3349,1 50813U 22001L   22023.58334491 -.00756473  00000-0 -57205-2 0  9993,2 50813  53.2175 116.4800 0001406  45.3768  79.1144 15.73867689  3184,6725.9919999999975,91.494,348.80300000000005,346.912,0.0
50813.0,STARLINK-3349,PAYLOAD,2022-01-23 22:00:00,15.7321831,0.0001175,53.2173,114.8284,67.6262,146.2716,-0.00017771,-0.00025504,0.0,0 STARLINK-3349,1 50813U 22001L   22023.91667824 -.00025504  00000-0 -17771-3 0  9998,2 50813  53.2173 114.8284 0001175  67.6262 146.2716 15.73218310  3967,6727.843000000003,91.532,350.49800000000016,348.917,0.0
50813.0,STARLINK-3349,PAYLOAD,2022-01-24 14:00:01,15.73205211,0.0001512,53.2151,111.5288,53.2297,338.7362,0.00017786,0.00024419,0.0,0 STARLINK-3349,1 50813U 22001L   22024.58334491  .00024419  00000-0  17786-3 0  9991,2 50813  53.2151 111.5288 0001512  53.2297 338.7362 15.73205211  4079,6727.88,91.533,350.76300000000015,348.728,0.0
50813.0,STARLINK-3349,PAYLOAD,2022-01-24 22:00:00,15.73249801,0.0001325,53.215,109.878,47.5171,73.3801,-0.00080212,-0.00111945,0.0,0 STARLINK-3349,1 50813U 22001L   22024.91667824 -.00111945  00000-0 -80212-3 0  9994,2 50813  53.2150 109.8780 0001325  47.5171  73.3801 15.73249801  3403,6727.753000000002,91.53,350.51,348.727,0.0
50813.0,STARLINK-3349,PAYLOAD,2022-01-25 04:00:00,15.73156958,0.0001194,53.2149,108.6398,51.0851,46.5326,0.00042189,0.00058896,0.0,0 STARLINK-3349,1 50813U 22001L   22025.16667824  .00058896  00000-0  42189-3 0  9996,2 50813  53.2149 108.6398 0001194  51.0851  46.5326 15.73156958  4160,6728.018,91.536,350.686,349.08,0.0
50813.0,STARLINK-3349,PAYLOAD,2022-01-27 14:00:01,15.73138281,0.000187,53.215,96.683,47.713,64.6677,0.00048729,0.00068145,0.0,0 STARLINK-3349,1 50813U 22001L   22027.58334491  .00068145  00000-0  48729-3 0  9999,2 50813  53.2150  96.6830 0001870  47.7130  64.6677 15.73138281  3744,6728.071,91.537,351.194,348.67800000000005,0.0
50813.0,STARLINK-3349,PAYLOAD,2022-01-27 18:05:56,15.73189094,0.000272,53.2151,95.8354,37.7677,322.3534,-2.5016e-05,-4.13e-05,0.0,0 STARLINK-3349,1 50813U 22001L   22027.75412759 -.00004130  00000-0 -25016-4 0  9993,2 50813  53.2151  95.8354 0002720  37.7677 322.3534 15.73189094  4562,6727.926,91.534,351.621,347.961,0.0
50813.0,STARLINK-3349,PAYLOAD,2022-01-28 06:00:02,15.732193099999998,0.0001733,53.2151,93.3822,55.0594,235.178,0.00014628,0.00019975,0.0,0 STARLINK-3349,1 50813U 22001L   22028.25002315  .00019975  00000-0  14628-3 0  9999,2 50813  53.2151  93.3822 0001733  55.0594 235.1780 15.73219310  4647,6727.84,91.532,350.871,348.539,0.0
50813.0,STARLINK-3349,PAYLOAD,2022-01-28 14:00:01,15.73230456,0.0001879,53.2153,91.7347,46.2076,332.9194,1.5097e-05,1.501e-05,0.0,0 STARLINK-3349,1 50813U 22001L   22028.58334491  .00001501  00000-0  15097-4 0  9996,2 50813  53.2153  91.7347 0001879  46.2076 332.9194 15.73230456  3739,6727.808000000001,91.531,350.93699999999984,348.409,0.0
50813.0,STARLINK-3349,PAYLOAD,2022-01-28 20:00:01,15.732401199999998,0.0001724,53.2152,90.4963,46.0873,309.7655,-0.00041712,-0.00058856,0.0,0 STARLINK-3349,1 50813U 22001L   22028.83334491 -.00058856  00000-0 -41712-3 0  9993,2 50813  53.2152  90.4963 0001724  46.0873 309.7655 15.73240120  4734,6727.781,91.531,350.806,348.486,0.0
50813.0,STARLINK-3349,PAYLOAD,2022-01-28 22:00:00,15.73191634,0.0001631999999999,53.2154,90.0833,46.132,61.972,0.00017818,0.0002445,0.0,0 STARLINK-3349,1 50813U 22001L   22028.91667824  .00024450  00000-0  17818-3 0  9992,2 50813  53.2154  90.0833 0001632  46.1320  61.9720 15.73191634  3705,6727.919,91.534,350.88199999999995,348.686,0.0
50813.0,STARLINK-3349,PAYLOAD,2022-01-29 06:00:00,15.73247876,0.0001633,53.2154,88.434,47.6629,149.3604,-0.0002734,-0.00038893,0.0,0 STARLINK-3349,1 50813U 22001L   22029.25001157 -.00038893  00000-0 -27340-3 0  9990,2 50813  53.2154  88.4340 0001633  47.6629 149.3604 15.73247876  4802,6727.759,91.53,350.722,348.525,0.0
50813.0,STARLINK-3349,PAYLOAD,2022-01-29 14:00:01,15.7317539,0.0001809,53.215,86.7863,38.3458,247.6614,0.00036594,0.00050996,0.0,0 STARLINK-3349,1 50813U 22001L   22029.58334491  .00050996  00000-0  36594-3 0  9993,2 50813  53.2150  86.7863 0001809  38.3458 247.6614 15.73175390  3736,6727.965,91.535,351.047,348.61300000000006,0.0
50813.0,STARLINK-3349,PAYLOAD,2022-01-29 22:00:00,15.73202463,0.0001526,53.2147,85.1348,41.8099,333.1268,0.00037533,0.0005239,0.0,0 STARLINK-3349,1 50813U 22001L   22029.91667824  .00052390  00000-0  37533-3 0  9993,2 50813  53.2147  85.1348 0001526  41.8099 333.1268 15.73202463  4918,6727.888000000001,91.533,350.78,348.726,0.0
50813.0,STARLINK-3349,PAYLOAD,2022-01-30 14:00:01,15.7320404,0.000172,53.215,81.8376,33.0238,159.8397,-0.00010146,-0.00014838,0.0,0 STARLINK-3349,1 50813U 22001L   22030.58334491 -.00014838  00000-0 -10146-3 0  9997,2 50813  53.2150  81.8376 0001720  33.0238 159.8397 15.73204040  5011,6727.884,91.533,350.906,348.591,0.0
50813.0,STARLINK-3349,PAYLOAD,2022-01-30 22:00:00,15.73190579,0.0001582,53.2151,80.186,38.0705,243.7308,-0.00034925,-0.0004933,0.0,0 STARLINK-3349,1 50813U 22001L   22030.91667824 -.00049330  00000-0 -34925-3 0  9999,2 50813  53.2151  80.1860 0001582  38.0705 243.7308 15.73190579  3735,6727.922,91.534,350.851,348.723,0.0
50813.0,STARLINK-3349,PAYLOAD,2022-01-31 06:00:00,15.73115942,0.0001597,53.2173,78.5374,35.247,335.2514,0.0010402,0.00147422,0.0,0 STARLINK-3349,1 50813U 22001L   22031.25001157  .00147422  00000-0  10402-2 0  9990,2 50813  53.2173  78.5374 0001597  35.2470 335.2514 15.73115942  5126,6728.135,91.538,351.074,348.925,0.0
50813.0,STARLINK-3349,PAYLOAD,2022-01-31 12:00:00,15.73180127,0.0001928,53.2146,77.3012,37.9827,309.3919,0.00042467,0.00059353,0.0,0 STARLINK-3349,1 50813U 22001L   22031.50001157  .00059353  00000-0  42467-3 0  9990,2 50813  53.2146  77.3012 0001928  37.9827 309.3919 15.73180127  5156,6727.9519999999975,91.534,351.11400000000015,348.52,0.0
50813.0,STARLINK-3349,PAYLOAD,2022-01-31 14:00:01,15.73183073,0.0001905,53.2143,76.8889,36.2075,63.4639,0.00049104,0.00068813,0.0,0 STARLINK-3349,1 50813U 22001L   22031.58335648  .00068813  00000-0  49104-3 0  9999,2 50813  53.2143  76.8889 0001905  36.2075  63.4639 15.73183073  3722,6727.943,91.534,351.09,348.527,0.0
50813.0,STARLINK-3349,PAYLOAD,2022-01-31 22:00:01,15.73203561,0.0001605,53.2141,75.2371,36.2474,152.3831,-0.0001052,-0.0001536,0.0,0 STARLINK-3349,1 50813U 22001L   22031.91668981 -.00015360  00000-0 -10520-3 0  9996,2 50813  53.2141  75.2371 0001605  36.2474 152.3831 15.73203561  3715,6727.885,91.533,350.83,348.67,0.0
50813.0,STARLINK-3349,PAYLOAD,2022-02-01 06:00:00,15.73220264,0.000164,53.2143,73.5881,37.173,240.3227,0.00012061,0.00016354,0.0,0 STARLINK-3349,1 50813U 22001L   22032.25001157  .00016354  00000-0  12061-3 0  9994,2 50813  53.2143  73.5881 0001640  37.1730 240.3227 15.73220264  5277,6727.837,91.532,350.806,348.599,0.0
50813.0,STARLINK-3349,PAYLOAD,2022-02-01 14:00:01,15.7322283,0.0001899,53.2142,71.9398,33.0308,333.4790000000001,-0.00019891,-0.00028471,0.0,0 STARLINK-3349,1 50813U 22001L   22032.58335648 -.00028471  00000-0 -19891-3 0  9998,2 50813  53.2142  71.9398 0001899  33.0308 333.4790 15.73222830  3710,6727.83,91.532,350.973,348.417,0.0
50813.0,STARLINK-3349,PAYLOAD,2022-02-01 22:00:00,15.73165759,0.0001693,53.2144,70.2881,37.626,57.7725,-4.510300000000001e-05,-6.936e-05,0.0,0 STARLINK-3349,1 50813U 22001L   22032.91667824 -.00006936  00000-0 -45103-4 0  9997,2 50813  53.2144  70.2881 0001693  37.6260  57.7725 15.73165759  5385,6727.993,91.535,350.997,348.719,0.0
50813.0,STARLINK-3349,PAYLOAD,2022-02-02 14:00:01,15.73171525,0.0001987,53.2137,66.9907,33.8524,239.3237,0.000523,0.00073336,0.0,0 STARLINK-3349,1 50813U 22001L   22033.58334491  .00073336  00000-0  52300-3 0  9994,2 50813  53.2137  66.9907 0001987  33.8524 239.3237 15.73171525  5480,6727.976,91.535,351.17800000000005,348.505,0.0
50813.0,STARLINK-3349,PAYLOAD,2022-02-02 22:00:00,15.73184119,0.0001732,53.2136,65.3389,39.8612,322.2419,0.00054352,0.00076304,0.0,0 STARLINK-3349,1 50813U 22001L   22033.91667824  .00076304  00000-0  54352-3 0  9997,2 50813  53.2136  65.3389 0001732  39.8612 322.2419 15.73184119  5542,6727.94,91.534,350.971,348.64,0.0
50813.0,STARLINK-3349,PAYLOAD,2022-02-03 06:00:00,15.73053228,0.0002098,53.2167,63.6914,38.7784,52.1623,0.0017188,0.00246259,0.0,0 STARLINK-3349,1 50813U 22001L   22034.25001157  .00246259  00000-0  17188-2 0  9999,2 50813  53.2167  63.6914 0002098  38.7784  52.1623 15.73053228  5592,6728.314,91.542,351.59,348.767,0.0
50813.0,STARLINK-3349,PAYLOAD,2022-02-03 14:00:01,15.7319074,0.0002012,53.2139,62.0415,29.932,150.0574,0.00018935,0.00026026,0.0,0 STARLINK-3349,1 50813U 22001L   22034.58334491  .00026026  00000-0  18935-3 0  9995,2 50813  53.2139  62.0415 0002012  29.9320 150.0574 15.73190740  5644,6727.922,91.534,351.14,348.43300000000005,0.0
